HIMAWARI-8              
1 40267U 14060A   23187.40327213 -.00000279  00000+0  00000+0 0  9990
2 40267   0.0244 299.7025 0001136 181.7358  88.5009  1.00270071 32068
